[{"OBJECT_NAME":"QIANFAN-35","OBJECT_ID":"2024-185S","EPOCH":"2026-03-07T13:16:05.942784","MEAN_MOTION":14.28123555,"ECCENTRICITY":0.00072548,"INCLINATION":88.9747,"RA_OF_ASC_NODE":66.9034,"ARG_OF_PERICENTER":26.7437,"MEAN_ANOMALY":333.413,"EPHEMERIS_TYPE":0,"CLASSIFICATION_TYPE":"U","NORAD_CAT_ID":61568,"ELEMENT_SET_NO":999,"REV_AT_EPOCH":8228,"BSTAR":0.00047203269,"MEAN_MOTION_DOT":1.188e-5,"MEAN_MOTION_DDOT":0},{"OBJECT_NAME":"QIANFAN-36","OBJECT_ID":"2024-185T","EPOCH":"2026-03-07T13:14:23.700480","MEAN_MOTION":13.5561413,"ECCENTRICITY":0.00071457,"INCLINATION":88.9719,"RA_OF_ASC_NODE":72.1923,"ARG_OF_PERICENTER":141.4891,"MEAN_ANOMALY":218.6774,"EPHEMERIS_TYPE":0,"CLASSIFICATION_TYPE":"U","NORAD_CAT_ID":61569,"ELEMENT_SET_NO":999,"REV_AT_EPOCH":7941,"BSTAR":0.00014170864,"MEAN_MOTION_DOT":1.11e-6,"MEAN_MOTION_DDOT":0},{"OBJECT_NAME":"QIANFAN-37","OBJECT_ID":"2024-232B","EPOCH":"2026-03-07T13:45:47.647296","MEAN_MOTION":13.5100564,"ECCENTRICITY":0.00017638,"INCLINATION":89.0056,"RA_OF_ASC_NODE":32.7612,"ARG_OF_PERICENTER":97.7012,"MEAN_ANOMALY":262.434,"EPHEMERIS_TYPE":0,"CLASSIFICATION_TYPE":"U","NORAD_CAT_ID":62238,"ELEMENT_SET_NO":999,"REV_AT_EPOCH":11062,"BSTAR":0.00012605945,"MEAN_MOTION_DOT":9.3e-7,"MEAN_MOTION_DDOT":0},{"OBJECT_NAME":"QIANFAN-38","OBJECT_ID":"2024-232C","EPOCH":"2026-03-07T14:21:16.259904","MEAN_MOTION":13.51004177,"ECCENTRICITY":0.00132504,"INCLINATION":89.0063,"RA_OF_ASC_NODE":32.6803,"ARG_OF_PERICENTER":317.2176,"MEAN_ANOMALY":42.7943,"EPHEMERIS_TYPE":0,"CLASSIFICATION_TYPE":"U","NORAD_CAT_ID":62239,"ELEMENT_SET_NO":999,"REV_AT_EPOCH":11068,"BSTAR":0.00012501039,"MEAN_MOTION_DOT":9.3e-7,"MEAN_MOTION_DDOT":0},{"OBJECT_NAME":"QIANFAN-39","OBJECT_ID":"2024-232D","EPOCH":"2026-03-07T13:49:25.391712","MEAN_MOTION":14.25438522,"ECCENTRICITY":0.00168191,"INCLINATION":89.0061,"RA_OF_ASC_NODE":27.6049,"ARG_OF_PERICENTER":152.8552,"MEAN_ANOMALY":207.3524,"EPHEMERIS_TYPE":0,"CLASSIFICATION_TYPE":"U","NORAD_CAT_ID":62240,"ELEMENT_SET_NO":999,"REV_AT_EPOCH":11347,"BSTAR":0.00022936879,"MEAN_MOTION_DOT":5.56e-6,"MEAN_MOTION_DDOT":0},{"OBJECT_NAME":"QIANFAN-40","OBJECT_ID":"2024-232E","EPOCH":"2026-03-07T15:08:40.236000","MEAN_MOTION":13.5100347,"ECCENTRICITY":0.00125433,"INCLINATION":89.0091,"RA_OF_ASC_NODE":32.2853,"ARG_OF_PERICENTER":326.3136,"MEAN_ANOMALY":33.7217,"EPHEMERIS_TYPE":0,"CLASSIFICATION_TYPE":"U","NORAD_CAT_ID":62241,"ELEMENT_SET_NO":999,"REV_AT_EPOCH":11105,"BSTAR":0.00015442283,"MEAN_MOTION_DOT":1.12e-6,"MEAN_MOTION_DDOT":0},{"OBJECT_NAME":"QIANFAN-41","OBJECT_ID":"2024-232F","EPOCH":"2026-03-07T13:33:55.658592","MEAN_MOTION":13.51005069,"ECCENTRICITY":0.00125605,"INCLINATION":89.0061,"RA_OF_ASC_NODE":32.6337,"ARG_OF_PERICENTER":313.306,"MEAN_ANOMALY":46.7043,"EPHEMERIS_TYPE":0,"CLASSIFICATION_TYPE":"U","NORAD_CAT_ID":62242,"ELEMENT_SET_NO":999,"REV_AT_EPOCH":11070,"BSTAR":0.00011867903,"MEAN_MOTION_DOT":8.9e-7,"MEAN_MOTION_DDOT":0},{"OBJECT_NAME":"QIANFAN-42","OBJECT_ID":"2024-232G","EPOCH":"2026-03-07T13:23:08.035296","MEAN_MOTION":14.24532216,"ECCENTRICITY":0.00154344,"INCLINATION":89.0059,"RA_OF_ASC_NODE":27.6668,"ARG_OF_PERICENTER":158.26,"MEAN_ANOMALY":201.9251,"EPHEMERIS_TYPE":0,"CLASSIFICATION_TYPE":"U","NORAD_CAT_ID":62243,"ELEMENT_SET_NO":999,"REV_AT_EPOCH":11344,"BSTAR":0.00021568704,"MEAN_MOTION_DOT":5.15e-6,"MEAN_MOTION_DDOT":0},{"OBJECT_NAME":"QIANFAN-43","OBJECT_ID":"2024-232H","EPOCH":"2026-03-07T15:14:35.531808","MEAN_MOTION":13.51005102,"ECCENTRICITY":0.00142237,"INCLINATION":89.0066,"RA_OF_ASC_NODE":32.6957,"ARG_OF_PERICENTER":318.0094,"MEAN_ANOMALY":41.9966,"EPHEMERIS_TYPE":0,"CLASSIFICATION_TYPE":"U","NORAD_CAT_ID":62244,"ELEMENT_SET_NO":999,"REV_AT_EPOCH":7932,"BSTAR":0.00012808059,"MEAN_MOTION_DOT":9.5e-7,"MEAN_MOTION_DDOT":0},{"OBJECT_NAME":"QIANFAN-44","OBJECT_ID":"2024-232J","EPOCH":"2026-03-07T14:56:50.119584","MEAN_MOTION":13.51003054,"ECCENTRICITY":0.00123608,"INCLINATION":89.0064,"RA_OF_ASC_NODE":32.5063,"ARG_OF_PERICENTER":315.7748,"MEAN_ANOMALY":44.2414,"EPHEMERIS_TYPE":0,"CLASSIFICATION_TYPE":"U","NORAD_CAT_ID":62245,"ELEMENT_SET_NO":999,"REV_AT_EPOCH":11079,"BSTAR":0.00013366004,"MEAN_MOTION_DOT":9.8e-7,"MEAN_MOTION_DDOT":0},{"OBJECT_NAME":"QIANFAN-45","OBJECT_ID":"2024-232K","EPOCH":"2026-03-07T07:02:52.566144","MEAN_MOTION":13.51001153,"ECCENTRICITY":0.0013034,"INCLINATION":89.0067,"RA_OF_ASC_NODE":32.6888,"ARG_OF_PERICENTER":316.0385,"MEAN_ANOMALY":43.9729,"EPHEMERIS_TYPE":0,"CLASSIFICATION_TYPE":"U","NORAD_CAT_ID":62246,"ELEMENT_SET_NO":999,"REV_AT_EPOCH":11067,"BSTAR":0.00029207,"MEAN_MOTION_DOT":2.0e-6,"MEAN_MOTION_DDOT":0},{"OBJECT_NAME":"QIANFAN-46","OBJECT_ID":"2024-232L","EPOCH":"2026-03-07T14:44:57.765408","MEAN_MOTION":13.51003646,"ECCENTRICITY":0.00132393,"INCLINATION":89.0063,"RA_OF_ASC_NODE":32.7222,"ARG_OF_PERICENTER":320.996,"MEAN_ANOMALY":39.0235,"EPHEMERIS_TYPE":0,"CLASSIFICATION_TYPE":"U","NORAD_CAT_ID":62247,"ELEMENT_SET_NO":999,"REV_AT_EPOCH":11067,"BSTAR":0.00011764953,"MEAN_MOTION_DOT":8.8e-7,"MEAN_MOTION_DDOT":0},{"OBJECT_NAME":"QIANFAN-47","OBJECT_ID":"2024-232M","EPOCH":"2026-03-07T14:50:53.030976","MEAN_MOTION":13.51003564,"ECCENTRICITY":0.00136276,"INCLINATION":89.0059,"RA_OF_ASC_NODE":32.6514,"ARG_OF_PERICENTER":319.8441,"MEAN_ANOMALY":40.1702,"EPHEMERIS_TYPE":0,"CLASSIFICATION_TYPE":"U","NORAD_CAT_ID":62248,"ELEMENT_SET_NO":999,"REV_AT_EPOCH":11070,"BSTAR":0.00013262531,"MEAN_MOTION_DOT":9.8e-7,"MEAN_MOTION_DDOT":0},{"OBJECT_NAME":"QIANFAN-48","OBJECT_ID":"2024-232N","EPOCH":"2026-03-07T13:57:34.137504","MEAN_MOTION":13.51003649,"ECCENTRICITY":0.00159564,"INCLINATION":89.0063,"RA_OF_ASC_NODE":32.6603,"ARG_OF_PERICENTER":321.763,"MEAN_ANOMALY":38.2388,"EPHEMERIS_TYPE":0,"CLASSIFICATION_TYPE":"U","NORAD_CAT_ID":62249,"ELEMENT_SET_NO":999,"REV_AT_EPOCH":11070,"BSTAR":9.793148e-5,"MEAN_MOTION_DOT":7.5e-7,"MEAN_MOTION_DDOT":0},{"OBJECT_NAME":"QIANFAN-49","OBJECT_ID":"2024-232P","EPOCH":"2026-03-07T13:39:48.155040","MEAN_MOTION":13.51002871,"ECCENTRICITY":0.00128865,"INCLINATION":89.0062,"RA_OF_ASC_NODE":32.6733,"ARG_OF_PERICENTER":317.3102,"MEAN_ANOMALY":42.7047,"EPHEMERIS_TYPE":0,"CLASSIFICATION_TYPE":"U","NORAD_CAT_ID":62250,"ELEMENT_SET_NO":999,"REV_AT_EPOCH":7929,"BSTAR":0.00012789273,"MEAN_MOTION_DOT":9.4e-7,"MEAN_MOTION_DDOT":0},{"OBJECT_NAME":"QIANFAN-50","OBJECT_ID":"2024-232Q","EPOCH":"2026-03-07T14:15:19.958400","MEAN_MOTION":13.51003798,"ECCENTRICITY":0.00145746,"INCLINATION":89.0068,"RA_OF_ASC_NODE":32.6836,"ARG_OF_PERICENTER":317.9194,"MEAN_ANOMALY":42.0837,"EPHEMERIS_TYPE":0,"CLASSIFICATION_TYPE":"U","NORAD_CAT_ID":62251,"ELEMENT_SET_NO":999,"REV_AT_EPOCH":7932,"BSTAR":0.000132352,"MEAN_MOTION_DOT":9.7e-7,"MEAN_MOTION_DDOT":0},{"OBJECT_NAME":"QIANFAN-51","OBJECT_ID":"2024-232R","EPOCH":"2026-03-07T13:51:40.638816","MEAN_MOTION":13.51004548,"ECCENTRICITY":0.00121964,"INCLINATION":89.0061,"RA_OF_ASC_NODE":32.6739,"ARG_OF_PERICENTER":323.2707,"MEAN_ANOMALY":36.7608,"EPHEMERIS_TYPE":0,"CLASSIFICATION_TYPE":"U","NORAD_CAT_ID":62252,"ELEMENT_SET_NO":999,"REV_AT_EPOCH":7931,"BSTAR":9.906984e-5,"MEAN_MOTION_DOT":7.6e-7,"MEAN_MOTION_DDOT":0}]
