QIANFAN-35              
1 61568U 24185S   26066.55284656  .00001188  00000+0  47203-3 0  9993
2 61568  88.9747  66.9034 0007254  26.7437 333.4130 14.28123555 82289
QIANFAN-36              
1 61569U 24185T   26066.55166320  .00000111  00000+0  14171-3 0  9994
2 61569  88.9719  72.1923 0007145 141.4891 218.6774 13.55614130 79415
QIANFAN-37              
1 62238U 24232B   26066.57346814  .00000093  00000+0  12606-3 0  9991
2 62238  89.0056  32.7612 0001763  97.7012 262.4340 13.51005640110621
QIANFAN-38              
1 62239U 24232C   26066.59810486  .00000093  00000+0  12501-3 0  9999
2 62239  89.0063  32.6803 0013250 317.2176  42.7943 13.51004177110684
QIANFAN-39              
1 62240U 24232D   26066.57598833  .00000556  00000+0  22937-3 0  9996
2 62240  89.0061  27.6049 0016819 152.8552 207.3524 14.25438522113476
QIANFAN-40              
1 62241U 24232E   26066.63102125  .00000112  00000+0  15442-3 0  9990
2 62241  89.0091  32.2853 0012543 326.3136  33.7217 13.51003470111051
QIANFAN-41              
1 62242U 24232F   26066.56522753  .00000089  00000+0  11868-3 0  9997
2 62242  89.0061  32.6337 0012560 313.3060  46.7043 13.51005069110709
QIANFAN-42              
1 62243U 24232G   26066.55773189  .00000515  00000+0  21569-3 0  9991
2 62243  89.0059  27.6668 0015434 158.2600 201.9251 14.24532216113447
QIANFAN-43              
1 62244U 24232H   26066.63513347  .00000095  00000+0  12808-3 0  9998
2 62244  89.0066  32.6957 0014223 318.0094  41.9966 13.51005102 79322
QIANFAN-44              
1 62245U 24232J   26066.62280231  .00000098  00000+0  13366-3 0  9994
2 62245  89.0064  32.5063 0012360 315.7748  44.2414 13.51003054110793
QIANFAN-45              
1 62246U 24232K   26066.29366396  .00000200  00000+0  29207-3 0  9991
2 62246  89.0067  32.6888 0013034 316.0385  43.9729 13.51001153110673
QIANFAN-46              
1 62247U 24232L   26066.61455747  .00000088  00000+0  11765-3 0  9991
2 62247  89.0063  32.7222 0013239 320.9960  39.0235 13.51003646110670
QIANFAN-47              
1 62248U 24232M   26066.61866934  .00000098  00000+0  13263-3 0  9992
2 62248  89.0059  32.6514 0013627 319.8441  40.1702 13.51003564110706
QIANFAN-48              
1 62249U 24232N   26066.58164511  .00000075  00000+0  97931-4 0  9991
2 62249  89.0063  32.6603 0015956 321.7630  38.2388 13.51003649110702
QIANFAN-49              
1 62250U 24232P   26066.56930735  .00000094  00000+0  12789-3 0  9998
2 62250  89.0062  32.6733 0012886 317.3102  42.7047 13.51002871 79297
QIANFAN-50              
1 62251U 24232Q   26066.59398100  .00000097  00000+0  13235-3 0  9996
2 62251  89.0068  32.6836 0014574 317.9194  42.0837 13.51003798 79324
QIANFAN-51              
1 62252U 24232R   26066.57755369  .00000076  00000+0  99070-4 0  9998
2 62252  89.0061  32.6739 0012196 323.2707  36.7608 13.51004548 79317
